NORAD_CAT_ID,OBJECT_NAME,OBJECT_TYPE,EPOCH,MEAN_MOTION,ECCENTRICITY,INCLINATION,RA_OF_ASC_NODE,ARG_OF_PERICENTER,MEAN_ANOMALY,BSTAR,MEAN_MOTION_DOT,MEAN_MOTION_DDOT,TLE_LINE0,TLE_LINE1,TLE_LINE2,SEMIMAJOR_AXIS,PERIOD,APOGEE,PERIGEE,DECAYED
55758.0,STARLINK-5072,PAYLOAD,2023-11-12 21:50:01,14.98326677,0.0002595,70.0001,221.8992,266.625,93.4612,0.00010717,1.186e-05,0.0,0 STARLINK-5072,1 55758U 23028T   23316.90973869  .00001186  00000-0  10717-3 0  9996,2 55758  70.0001 221.8992 0002595 266.6250  93.4612 14.98326677 39056,6950.203,96.107,573.872,570.265,0.0
55758.0,STARLINK-5072,PAYLOAD,2023-11-13 02:38:25,14.98335698,0.0002617,70.0002,221.3942,268.4506,91.6354,7.3588e-05,7.85e-06,0.0,0 STARLINK-5072,1 55758U 23028T   23317.11001314  .00000785  00000-0  73588-4 0  9997,2 55758  70.0002 221.3942 0002617 268.4506  91.6354 14.98335698 39085,6950.175,96.107,573.859,570.221,0.0
55758.0,STARLINK-5072,PAYLOAD,2023-11-13 10:39:05,14.98346201,0.0002321,70.0009,220.5522,269.1977,90.8916,-0.00019439,-2.412e-05,0.0,0 STARLINK-5072,1 55758U 23028T   23317.44381178 -.00002412  00000-0 -19439-3 0  9997,2 55758  70.0009 220.5522 0002321 269.1977  90.8916 14.98346201 39132,6950.143,96.106,573.621,570.395,0.0
55758.0,STARLINK-5072,PAYLOAD,2023-11-14 02:40:26,14.98332475,0.000273,69.9998,218.8689,265.1481,94.9367,7.5676e-05,8.1e-06,0.0,0 STARLINK-5072,1 55758U 23028T   23318.11141338  .00000810  00000-0  75676-4 0  9998,2 55758  69.9998 218.8689 0002730 265.1481  94.9367 14.98332475 39234,6950.185,96.107,573.948,570.153,0.0
55758.0,STARLINK-5072,PAYLOAD,2023-11-14 10:41:06,14.98349375,0.0002588,70.0005,218.0272,276.4794,83.607,-0.00035508,-4.329e-05,0.0,0 STARLINK-5072,1 55758U 23028T   23318.44521297 -.00004329  00000-0 -35508-3 0  9990,2 55758  70.0005 218.0272 0002588 276.4794  83.6070 14.98349375 39287,6950.133,96.106,573.797,570.199,0.0
55758.0,STARLINK-5072,PAYLOAD,2023-11-14 17:05:39,14.98327152,0.0002814,69.9997,217.3553,275.8683,84.2155,5.3228e-06,-2.9e-07,0.0,0 STARLINK-5072,1 55758U 23028T   23318.71225931 -.00000029  00000-0  53228-5 0  9999,2 55758  69.9997 217.3553 0002814 275.8683  84.2155 14.98327152 39325,6950.202,96.107,574.022,570.111,0.0
55758.0,STARLINK-5072,PAYLOAD,2023-11-15 04:18:35,14.9833479,0.0002737,70.0005,216.1757,273.4882,86.5964,6.7141e-06,-1.3e-07,0.0,0 STARLINK-5072,1 55758U 23028T   23319.17957439 -.00000013  00000-0  67141-5 0  9997,2 55758  70.0005 216.1757 0002737 273.4882  86.5964 14.98334790 39396,6950.178,96.107,573.945,570.141,0.0
55758.0,STARLINK-5072,PAYLOAD,2023-11-16 02:44:28,14.98330329,0.0002439,70.0004,213.8183,273.9229,86.1651,2.9546e-05,2.6e-06,0.0,0 STARLINK-5072,1 55758U 23028T   23320.11421624  .00000260  00000-0  29546-4 0  9994,2 55758  70.0004 213.8183 0002439 273.9229  86.1651 14.98330329 39530,6950.192,96.107,573.752,570.362,0.0
55758.0,STARLINK-5072,PAYLOAD,2023-11-17 02:46:29,14.98329002,0.0002801,69.9995,211.294,272.0754,88.0084,1.3437e-05,6.7e-07,0.0,0 STARLINK-5072,1 55758U 23028T   23321.11561642  .00000067  00000-0  13437-4 0  9997,2 55758  69.9995 211.2940 0002801 272.0754  88.0084 14.98329002 39688,6950.196,96.107,574.008,570.114,0.0
55758.0,STARLINK-5072,PAYLOAD,2023-11-17 15:35:33,14.9832959,0.0002758,69.9994,209.9478,271.6538,88.4305,7.8104e-07,-8.4e-07,0.0,0 STARLINK-5072,1 55758U 23028T   23321.64969646 -.00000084  00000-0  78104-6 0  9995,2 55758  69.9994 209.9478 0002758 271.6538  88.4305 14.98329590 39764,6950.194,96.107,573.976,570.142,0.0
55758.0,STARLINK-5072,PAYLOAD,2023-11-18 02:48:30,14.98330126,0.0002757,69.9998,208.7702,271.1626,88.9218,1.0732e-05,3.5e-07,0.0,0 STARLINK-5072,1 55758U 23028T   23322.11701566  .00000035  00000-0  10732-4 0  9999,2 55758  69.9998 208.7702 0002757 271.1626  88.9218 14.98330126 39830,6950.193,96.107,573.974,570.141,0.0
55758.0,STARLINK-5072,PAYLOAD,2023-11-19 02:50:30,14.98333136,0.0002764,70.0001,206.2455,271.8124,88.2718,5.1637e-05,5.23e-06,0.0,0 STARLINK-5072,1 55758U 23028T   23323.11841132  .00000523  00000-0  51637-4 0  9995,2 55758  70.0001 206.2455 0002764 271.8124  88.2718 14.98333136 39982,6950.183,96.107,573.969,570.127,0.0
55758.0,STARLINK-5072,PAYLOAD,2023-11-19 09:15:03,14.98332173,0.0002773,70.0001,205.5722,272.3836,87.7005,3.9676e-05,3.8e-06,0.0,0 STARLINK-5072,1 55758U 23028T   23323.38545178  .00000380  00000-0  39676-4 0  9995,2 55758  70.0001 205.5722 0002773 272.3836  87.7005 14.98332173 40027,6950.186,96.107,573.978,570.124,0.0
55758.0,STARLINK-5072,PAYLOAD,2023-11-19 22:04:08,14.98322472,0.0002612,70.0,204.2252,268.4224,91.6636,-9.3524e-05,-1.208e-05,0.0,0 STARLINK-5072,1 55758U 23028T   23323.91954112 -.00001208  00000-0 -93524-4 0  9990,2 55758  70.0000 204.2252 0002612 268.4224  91.6636 14.98322472 40103,6950.216,96.107,573.897,570.266,0.0
55758.0,STARLINK-5072,PAYLOAD,2023-11-20 02:52:32,14.98325013,0.0002818,69.9995,203.7209,270.8639,89.2198,-5.3209e-05,-7.28e-06,0.0,0 STARLINK-5072,1 55758U 23028T   23324.11981894 -.00000728  00000-0 -53209-4 0  9992,2 55758  69.9995 203.7209 0002818 270.8639  89.2198 14.98325013 40137,6950.208,96.107,574.032,570.115,0.0
55758.0,STARLINK-5072,PAYLOAD,2023-11-20 09:17:04,14.98327523,0.0002808,69.9996,203.0477,270.6017,89.482,-3.6909e-05,-5.33e-06,0.0,0 STARLINK-5072,1 55758U 23028T   23324.38685744 -.00000533  00000-0 -36909-4 0  9998,2 55758  69.9996 203.0477 0002808 270.6017  89.4820 14.98327523 40171,6950.201,96.107,574.017,570.114,0.0
55758.0,STARLINK-5072,PAYLOAD,2023-11-20 18:53:52,14.98332809,0.0002817,69.9994,202.0376,270.0704,90.0132,-1.3457e-05,-2.54e-06,0.0,0 STARLINK-5072,1 55758U 23028T   23324.78741353 -.00000254  00000-0 -13457-4 0  9994,2 55758  69.9994 202.0376 0002817 270.0704  90.0132 14.98332809 40237,6950.184,96.107,574.007,570.091,0.0
55758.0,STARLINK-5072,PAYLOAD,2023-11-20 22:06:08,14.98334953,0.0002809,69.9994,201.701,269.9708,90.1129,1.1239e-05,4.1e-07,0.0,0 STARLINK-5072,1 55758U 23028T   23324.92093113  .00000041  00000-0  11239-4 0  9992,2 55758  69.9994 201.7010 0002809 269.9708  90.1129 14.98334953 40251,6950.178,96.107,573.995,570.09,0.0
55758.0,STARLINK-5072,PAYLOAD,2023-11-21 09:19:04,14.98333045,0.0002792,69.9992,200.5225,269.9492,90.1347,-2.3021e-05,-3.68e-06,0.0,0 STARLINK-5072,1 55758U 23028T   23325.38825170 -.00000368  00000-0 -23021-4 0  9995,2 55758  69.9992 200.5225 0002792 269.9492  90.1347 14.98333045 40326,6950.183,96.107,573.989,570.108,0.0
55758.0,STARLINK-5072,PAYLOAD,2023-11-21 18:55:53,14.98327305,0.0002801,69.9992,199.5126,270.2973,89.7865,4.9303e-06,-3.4e-07,0.0,0 STARLINK-5072,1 55758U 23028T   23325.78881484 -.00000034  00000-0  49303-5 0  9990,2 55758  69.9992 199.5126 0002801 270.2973  89.7865 14.98327305 40380,6950.201,96.107,574.013,570.119,0.0
55758.0,STARLINK-5072,PAYLOAD,2023-11-21 20:32:02,14.98286916,0.0003076,69.9992,199.3444,265.4655,94.6153,0.00071744,8.468e-05,0.0,0 STARLINK-5072,1 55758U 23028T   23325.85558453  .00008468  00000-0  71744-3 0  9995,2 55758  69.9992 199.3444 0003076 265.4655  94.6153 14.98286916 40397,6950.326,96.11,574.329,570.053,0.0
55758.0,STARLINK-5072,PAYLOAD,2023-11-22 01:20:25,14.98330789,0.0002736,69.9992,198.8393,269.0691,91.0154,0.00011791,1.314e-05,0.0,0 STARLINK-5072,1 55758U 23028T   23326.05584975  .00001314  00000-0  11791-3 0  9995,2 55758  69.9992 198.8393 0002736 269.0691  91.0154 14.98330789 40420,6950.19,96.107,573.957,570.154,0.0
55758.0,STARLINK-5072,PAYLOAD,2023-11-22 18:57:54,14.9832224,0.000265,69.9991,196.9874,267.4494,92.6362,0.00014668,1.657e-05,0.0,0 STARLINK-5072,1 55758U 23028T   23326.79021482  .00001657  00000-0  14668-3 0  9991,2 55758  69.9991 196.9874 0002650 267.4494  92.6362 14.98322240 40533,6950.217,96.107,573.924,570.24,0.0
55758.0,STARLINK-5072,PAYLOAD,2023-11-22 20:34:02,14.98326441,0.0002608,69.999,196.8191,268.1282,91.9578,7.254e-05,7.73e-06,0.0,0 STARLINK-5072,1 55758U 23028T   23326.85697426  .00000773  00000-0  72540-4 0  9997,2 55758  69.9990 196.8191 0002608 268.1282  91.9578 14.98326441 40548,6950.204,96.107,573.882,570.256,0.0
55758.0,STARLINK-5072,PAYLOAD,2023-11-23 01:22:26,14.98336156,0.0002492,69.9993,196.3137,269.9653,90.122,2.7943e-05,2.41e-06,0.0,0 STARLINK-5072,1 55758U 23028T   23327.05724853  .00000241  00000-0  27943-4 0  9992,2 55758  69.9993 196.3137 0002492 269.9653  90.1220 14.98336156 40570,6950.174,96.107,573.771,570.307,0.0
55758.0,STARLINK-5072,PAYLOAD,2023-11-23 18:59:56,14.98294038,0.0002613,69.9998,194.4639,259.8562,100.2302,0.00052641,6.188e-05,0.0,0 STARLINK-5072,1 55758U 23028T   23327.79162268  .00006188  00000-0  52641-3 0  9997,2 55758  69.9998 194.4639 0002613 259.8562 100.2302 14.98294038 40681,6950.304,96.109,573.985,570.353,0.0
55758.0,STARLINK-5072,PAYLOAD,2023-11-23 22:12:11,14.98323554,0.0002363,69.9998,194.1278,257.7364,102.353,-3.7928e-05,-5.45e-06,0.0,0 STARLINK-5072,1 55758U 23028T   23327.92513788 -.00000545  00000-0 -37928-4 0  9994,2 55758  69.9998 194.1278 0002363 257.7364 102.3530 14.98323554 40701,6950.213,96.107,573.72,570.435,0.0
55758.0,STARLINK-5072,PAYLOAD,2023-11-24 01:24:28,14.98324586,0.0002399,69.9997,193.7908,259.3499,100.739,-6.6335e-05,-8.84e-06,0.0,0 STARLINK-5072,1 55758U 23028T   23328.05865852 -.00000884  00000-0 -66335-4 0  9991,2 55758  69.9997 193.7908 0002399 259.3499 100.7390 14.98324586 40725,6950.21,96.107,573.742,570.407,0.0
55758.0,STARLINK-5072,PAYLOAD,2023-11-24 19:01:56,14.98330508,0.00027,69.9991,191.9383,266.3295,93.7555,-2.8381e-05,-4.32e-06,0.0,0 STARLINK-5072,1 55758U 23028T   23328.79301418 -.00000432  00000-0 -28381-4 0  9993,2 55758  69.9991 191.9383 0002700 266.3295  93.7555 14.98330508 40831,6950.191,96.107,573.933,570.18,0.0
55758.0,STARLINK-5072,PAYLOAD,2023-11-24 22:14:12,14.98333293,0.000251,69.9991,191.6013,260.2751,99.8125,1.3055e-08,-9.3e-07,0.0,0 STARLINK-5072,1 55758U 23028T   23328.92653134 -.00000093  00000-0  13055-7 0  9990,2 55758  69.9991 191.6013 0002510 260.2751  99.8125 14.98333293 40853,6950.183,96.107,573.792,570.303,0.0
